{
  "norad_id": 61917,
  "name": "STARLINK-32544",
  "history": [
    {
      "epoch": "2026-03-28T14:04:37.983072Z",
      "apogee_km": 484.0096620705017,
      "perigee_km": 481.9197704877224,
      "latitude_deg": 2.065943264060597e-06,
      "longitude_deg": 137.72447281845297,
      "height_km": 482.63688681479374,
      "semi_major_axis_km": 6861.101716279111,
      "eccentricity": 0.0001523,
      "inclination_deg": 43.0017,
      "raan_deg": 174.8876,
      "arg_perigee_deg": 275.7575,
      "mean_anomaly_deg": 84.3103,
      "mean_motion_rev_day": 15.2760818
    }
  ]
}